CCSDS_OMM_VERS = 2.0
CREATION_DATE  = 
ORIGINATOR     = 

OBJECT_NAME    = UNKNOWN
OBJECT_ID      = 
CENTER_NAME    = EARTH
REF_FRAME      = TEME
TIME_SYSTEM    = UTC
MEAN_ELEMENT_THEORY = SGP/SGP4

EPOCH          = 2025-12-05T06:56:08.324736
MEAN_MOTION    = 14.58267661
ECCENTRICITY   = .0097707
INCLINATION    = 65.2043
RA_OF_ASC_NODE = 349.3470
ARG_OF_PERICENTER = 57.8587
MEAN_ANOMALY   = 303.1947

EPHEMERIS_TYPE = 0
CLASSIFICATION_TYPE = U
NORAD_CAT_ID   = 87164
ELEMENT_SET_NO = 999
REV_AT_EPOCH   = 63468
BSTAR          = .18102E-2
MEAN_MOTION_DOT = .8848E-4
MEAN_MOTION_DDOT = 0

CCSDS_OMM_VERS = 2.0
CREATION_DATE  = 
ORIGINATOR     = 

OBJECT_NAME    = UNKNOWN
OBJECT_ID      = 
CENTER_NAME    = EARTH
REF_FRAME      = TEME
TIME_SYSTEM    = UTC
MEAN_ELEMENT_THEORY = SGP/SGP4

EPOCH          = 2025-12-06T01:28:04.889280
MEAN_MOTION    = 14.29280457
ECCENTRICITY   = .004658
INCLINATION    = 98.5367
RA_OF_ASC_NODE = 201.0139
ARG_OF_PERICENTER = 344.9482
MEAN_ANOMALY   = 15.0311

EPHEMERIS_TYPE = 0
CLASSIFICATION_TYPE = U
NORAD_CAT_ID   = 87204
ELEMENT_SET_NO = 999
REV_AT_EPOCH   = 62448
BSTAR          = .17892E-2
MEAN_MOTION_DOT = .4563E-4
MEAN_MOTION_DDOT = 0

CCSDS_OMM_VERS = 2.0
CREATION_DATE  = 
ORIGINATOR     = 

OBJECT_NAME    = UNKNOWN
OBJECT_ID      = 
CENTER_NAME    = EARTH
REF_FRAME      = TEME
TIME_SYSTEM    = UTC
MEAN_ELEMENT_THEORY = SGP/SGP4

EPOCH          = 2025-12-07T06:23:25.835136
MEAN_MOTION    = 14.46417043
ECCENTRICITY   = .0053203
INCLINATION    = 99.0853
RA_OF_ASC_NODE = 340.6869
ARG_OF_PERICENTER = 174.7242
MEAN_ANOMALY   = 206.4708

EPHEMERIS_TYPE = 0
CLASSIFICATION_TYPE = U
NORAD_CAT_ID   = 87211
ELEMENT_SET_NO = 999
REV_AT_EPOCH   = 70698
BSTAR          = .15607E-2
MEAN_MOTION_DOT = .566E-4
MEAN_MOTION_DDOT = 0

CCSDS_OMM_VERS = 2.0
CREATION_DATE  = 
ORIGINATOR     = 

OBJECT_NAME    = UNKNOWN
OBJECT_ID      = 
CENTER_NAME    = EARTH
REF_FRAME      = TEME
TIME_SYSTEM    = UTC
MEAN_ELEMENT_THEORY = SGP/SGP4

EPOCH          = 2025-12-05T17:43:57.631008
MEAN_MOTION    = 13.84082598
ECCENTRICITY   = .0074355
INCLINATION    = 100.3308
RA_OF_ASC_NODE = 337.7185
ARG_OF_PERICENTER = 272.1719
MEAN_ANOMALY   = 87.0919

EPHEMERIS_TYPE = 0
CLASSIFICATION_TYPE = U
NORAD_CAT_ID   = 87214
ELEMENT_SET_NO = 999
REV_AT_EPOCH   = 59927
BSTAR          = .1402E-2
MEAN_MOTION_DOT = .1542E-4
MEAN_MOTION_DDOT = 0

CCSDS_OMM_VERS = 2.0
CREATION_DATE  = 
ORIGINATOR     = 

OBJECT_NAME    = UNKNOWN
OBJECT_ID      = 
CENTER_NAME    = EARTH
REF_FRAME      = TEME
TIME_SYSTEM    = UTC
MEAN_ELEMENT_THEORY = SGP/SGP4

EPOCH          = 2025-12-07T10:09:59.522112
MEAN_MOTION    = 13.91745724
ECCENTRICITY   = .0102467
INCLINATION    = 99.2571
RA_OF_ASC_NODE = 36.9183
ARG_OF_PERICENTER = 298.7480
MEAN_ANOMALY   = 79.4979

EPHEMERIS_TYPE = 0
CLASSIFICATION_TYPE = U
NORAD_CAT_ID   = 87237
ELEMENT_SET_NO = 999
REV_AT_EPOCH   = 61102
BSTAR          = .54647E-3
MEAN_MOTION_DOT = .679E-5
MEAN_MOTION_DDOT = 0

CCSDS_OMM_VERS = 2.0
CREATION_DATE  = 
ORIGINATOR     = 

OBJECT_NAME    = UNKNOWN
OBJECT_ID      = 
CENTER_NAME    = EARTH
REF_FRAME      = TEME
TIME_SYSTEM    = UTC
MEAN_ELEMENT_THEORY = SGP/SGP4

EPOCH          = 2025-12-07T13:46:57.953568
MEAN_MOTION    = 14.51826607
ECCENTRICITY   = .0018263
INCLINATION    = 82.8731
RA_OF_ASC_NODE = 87.2552
ARG_OF_PERICENTER = 62.6783
MEAN_ANOMALY   = 297.6273

EPHEMERIS_TYPE = 0
CLASSIFICATION_TYPE = U
NORAD_CAT_ID   = 87239
ELEMENT_SET_NO = 999
REV_AT_EPOCH   = 62712
BSTAR          = .41166E-2
MEAN_MOTION_DOT = .16645E-3
MEAN_MOTION_DDOT = 0

CCSDS_OMM_VERS = 2.0
CREATION_DATE  = 
ORIGINATOR     = 

OBJECT_NAME    = UNKNOWN
OBJECT_ID      = 
CENTER_NAME    = EARTH
REF_FRAME      = TEME
TIME_SYSTEM    = UTC
MEAN_ELEMENT_THEORY = SGP/SGP4

EPOCH          = 2025-12-07T11:36:07.851744
MEAN_MOTION    = 14.15770350
ECCENTRICITY   = .0430712
INCLINATION    = 65.6404
RA_OF_ASC_NODE = 61.8717
ARG_OF_PERICENTER = 123.8763
MEAN_ANOMALY   = 259.4709

EPHEMERIS_TYPE = 0
CLASSIFICATION_TYPE = U
NORAD_CAT_ID   = 87245
ELEMENT_SET_NO = 999
REV_AT_EPOCH   = 61346
BSTAR          = .16712E-2
MEAN_MOTION_DOT = .8096E-4
MEAN_MOTION_DDOT = 0

CCSDS_OMM_VERS = 2.0
CREATION_DATE  = 
ORIGINATOR     = 

OBJECT_NAME    = UNKNOWN
OBJECT_ID      = 
CENTER_NAME    = EARTH
REF_FRAME      = TEME
TIME_SYSTEM    = UTC
MEAN_ELEMENT_THEORY = SGP/SGP4

EPOCH          = 2025-12-07T11:43:32.530944
MEAN_MOTION    = 14.21534288
ECCENTRICITY   = .0419473
INCLINATION    = 65.7558
RA_OF_ASC_NODE = 250.4153
ARG_OF_PERICENTER = 76.3535
MEAN_ANOMALY   = 288.3888

EPHEMERIS_TYPE = 0
CLASSIFICATION_TYPE = U
NORAD_CAT_ID   = 87271
ELEMENT_SET_NO = 999
REV_AT_EPOCH   = 61162
BSTAR          = .2239E-2
MEAN_MOTION_DOT = .12073E-3
MEAN_MOTION_DDOT = 0

CCSDS_OMM_VERS = 2.0
CREATION_DATE  = 
ORIGINATOR     = 

OBJECT_NAME    = UNKNOWN
OBJECT_ID      = 
CENTER_NAME    = EARTH
REF_FRAME      = TEME
TIME_SYSTEM    = UTC
MEAN_ELEMENT_THEORY = SGP/SGP4

EPOCH          = 2025-12-07T00:57:33.642144
MEAN_MOTION    = 13.48546769
ECCENTRICITY   = .0129979
INCLINATION    = 64.6154
RA_OF_ASC_NODE = 249.4706
ARG_OF_PERICENTER = 261.9139
MEAN_ANOMALY   = 96.7136

EPHEMERIS_TYPE = 0
CLASSIFICATION_TYPE = U
NORAD_CAT_ID   = 87280
ELEMENT_SET_NO = 999
REV_AT_EPOCH   = 53308
BSTAR          = .10281E-2
MEAN_MOTION_DOT = .591E-5
MEAN_MOTION_DDOT = 0

CCSDS_OMM_VERS = 2.0
CREATION_DATE  = 
ORIGINATOR     = 

OBJECT_NAME    = UNKNOWN
OBJECT_ID      = 
CENTER_NAME    = EARTH
REF_FRAME      = TEME
TIME_SYSTEM    = UTC
MEAN_ELEMENT_THEORY = SGP/SGP4

EPOCH          = 2025-12-07T12:26:49.456608
MEAN_MOTION    = 14.17963270
ECCENTRICITY   = .0426136
INCLINATION    = 65.8982
RA_OF_ASC_NODE = 159.1190
ARG_OF_PERICENTER = 2.5305
MEAN_ANOMALY   = 357.7796

EPHEMERIS_TYPE = 0
CLASSIFICATION_TYPE = U
NORAD_CAT_ID   = 87293
ELEMENT_SET_NO = 999
REV_AT_EPOCH   = 61325
BSTAR          = .14056E-2
MEAN_MOTION_DOT = .7049E-4
MEAN_MOTION_DDOT = 0

CCSDS_OMM_VERS = 2.0
CREATION_DATE  = 
ORIGINATOR     = 

OBJECT_NAME    = UNKNOWN
OBJECT_ID      = 
CENTER_NAME    = EARTH
REF_FRAME      = TEME
TIME_SYSTEM    = UTC
MEAN_ELEMENT_THEORY = SGP/SGP4

EPOCH          = 2025-12-02T05:04:36.739776
MEAN_MOTION    = 13.99371742
ECCENTRICITY   = .0029058
INCLINATION    = 100.0846
RA_OF_ASC_NODE = 317.6154
ARG_OF_PERICENTER = 320.3882
MEAN_ANOMALY   = 39.5155

EPHEMERIS_TYPE = 0
CLASSIFICATION_TYPE = U
NORAD_CAT_ID   = 87300
ELEMENT_SET_NO = 999
REV_AT_EPOCH   = 61164
BSTAR          = .14946E-2
MEAN_MOTION_DOT = .213E-4
MEAN_MOTION_DDOT = 0

CCSDS_OMM_VERS = 2.0
CREATION_DATE  = 
ORIGINATOR     = 

OBJECT_NAME    = UNKNOWN
OBJECT_ID      = 
CENTER_NAME    = EARTH
REF_FRAME      = TEME
TIME_SYSTEM    = UTC
MEAN_ELEMENT_THEORY = SGP/SGP4

EPOCH          = 2025-12-05T06:06:01.868256
MEAN_MOTION    = 14.75379537
ECCENTRICITY   = .0020513
INCLINATION    = 74.0229
RA_OF_ASC_NODE = 335.6148
ARG_OF_PERICENTER = 305.9052
MEAN_ANOMALY   = 54.0217

EPHEMERIS_TYPE = 0
CLASSIFICATION_TYPE = U
NORAD_CAT_ID   = 87304
ELEMENT_SET_NO = 999
REV_AT_EPOCH   = 64537
BSTAR          = .59213E-3
MEAN_MOTION_DOT = .4001E-4
MEAN_MOTION_DDOT = 0

