UNKNOWN                 
1 87164U          25339.28898524  .00008848  00000+0  18102-2 0  9995
2 87164  65.2043 349.3470 0097707  57.8587 303.1947 14.58267661634688
UNKNOWN                 
1 87204U          25340.06116770  .00004563  00000+0  17892-2 0  9999
2 87204  98.5367 201.0139 0046580 344.9482  15.0311 14.29280457624481
UNKNOWN                 
1 87211U          25341.26627124  .00005660  00000+0  15607-2 0  9991
2 87211  99.0853 340.6869 0053203 174.7242 206.4708 14.46417043706982
UNKNOWN                 
1 87214U          25339.73886147  .00001542  00000+0  14020-2 0  9998
2 87214 100.3308 337.7185 0074355 272.1719  87.0919 13.84082598599270
UNKNOWN                 
1 87237U          25341.42360558  .00000679  00000+0  54647-3 0  9995
2 87237  99.2571  36.9183 0102467 298.7480  79.4979 13.91745724611028
UNKNOWN                 
1 87239U          25341.57428187  .00016645  00000+0  41166-2 0  9997
2 87239  82.8731  87.2552 0018263  62.6783 297.6273 14.51826607627125
UNKNOWN                 
1 87245U          25341.48342421  .00008096  00000+0  16712-2 0  9990
2 87245  65.6404  61.8717 0430712 123.8763 259.4709 14.15770350613469
UNKNOWN                 
1 87271U          25341.48857096  .00012073  00000+0  22390-2 0  9997
2 87271  65.7558 250.4153 0419473  76.3535 288.3888 14.21534288611629
UNKNOWN                 
1 87280U          25341.03997271  .00000591  00000+0  10281-2 0  9996
2 87280  64.6154 249.4706 0129979 261.9139  96.7136 13.48546769533087
UNKNOWN                 
1 87293U          25341.51862797  .00007049  00000+0  14056-2 0  9996
2 87293  65.8982 159.1190 0426136   2.5305 357.7796 14.17963270613253
UNKNOWN                 
1 87300U          25336.21153634  .00002130  00000+0  14946-2 0  9993
2 87300 100.0846 317.6154 0029058 320.3882  39.5155 13.99371742611648
UNKNOWN                 
1 87304U          25339.25418829  .00004001  00000+0  59213-3 0  9990
2 87304  74.0229 335.6148 0020513 305.9052  54.0217 14.75379537645378
